SHIJIAN-15 (SJ-15)
1 39210U 13037C   25355.53323942  .00000627  00000+0  10985-3 0  9990
2 39210  98.1011 354.3471 0006243   6.5765 353.5522 14.71175943668207